[{"OBJECT_NAME":"KUIPER-00276","OBJECT_ID":"2026-030AG","EPOCH":"2026-03-12T02:33:52.540704","MEAN_MOTION":15.30127064,"ECCENTRICITY":0.00187525,"INCLINATION":51.8836,"RA_OF_ASC_NODE":208.2552,"ARG_OF_PERICENTER":73.5881,"MEAN_ANOMALY":286.7163,"EPHEMERIS_TYPE":0,"CLASSIFICATION_TYPE":"U","NORAD_CAT_ID":67794,"ELEMENT_SET_NO":999,"REV_AT_EPOCH":545,"BSTAR":0.00094591312,"MEAN_MOTION_DOT":0.0002786,"MEAN_MOTION_DDOT":0},{"OBJECT_NAME":"KUIPER-00279","OBJECT_ID":"2026-030AH","EPOCH":"2026-03-12T02:39:58.076640","MEAN_MOTION":15.35545276,"ECCENTRICITY":0.00062664,"INCLINATION":51.8791,"RA_OF_ASC_NODE":207.5427,"ARG_OF_PERICENTER":56.9919,"MEAN_ANOMALY":303.1669,"EPHEMERIS_TYPE":0,"CLASSIFICATION_TYPE":"U","NORAD_CAT_ID":67795,"ELEMENT_SET_NO":999,"REV_AT_EPOCH":546,"BSTAR":0.0010823234,"MEAN_MOTION_DOT":0.00037792,"MEAN_MOTION_DDOT":0},{"OBJECT_NAME":"CREW DRAGON 12","OBJECT_ID":"2026-031A","EPOCH":"2026-03-12T03:49:12.417600","MEAN_MOTION":15.48595269,"ECCENTRICITY":0.00079841,"INCLINATION":51.6325,"RA_OF_ASC_NODE":60.1463,"ARG_OF_PERICENTER":183.4136,"MEAN_ANOMALY":176.6799,"EPHEMERIS_TYPE":0,"CLASSIFICATION_TYPE":"U","NORAD_CAT_ID":67796,"ELEMENT_SET_NO":999,"REV_AT_EPOCH":55661,"BSTAR":0.00017667487,"MEAN_MOTION_DOT":9.166e-5,"MEAN_MOTION_DDOT":0},{"OBJECT_NAME":"STARLINK-36800","OBJECT_ID":"2026-032A","EPOCH":"2026-03-12T05:37:52.805280","MEAN_MOTION":15.75197226,"ECCENTRICITY":0.00014701,"INCLINATION":97.2841,"RA_OF_ASC_NODE":257.8416,"ARG_OF_PERICENTER":78.0732,"MEAN_ANOMALY":282.0698,"EPHEMERIS_TYPE":0,"CLASSIFICATION_TYPE":"U","NORAD_CAT_ID":67797,"ELEMENT_SET_NO":999,"REV_AT_EPOCH":518,"BSTAR":0.00073846737,"MEAN_MOTION_DOT":0.00111501,"MEAN_MOTION_DDOT":0},{"OBJECT_NAME":"STARLINK-36798","OBJECT_ID":"2026-032B","EPOCH":"2026-03-12T06:45:58.810752","MEAN_MOTION":15.75208867,"ECCENTRICITY":0.0001175,"INCLINATION":97.2844,"RA_OF_ASC_NODE":257.9312,"ARG_OF_PERICENTER":106.7092,"MEAN_ANOMALY":253.4302,"EPHEMERIS_TYPE":0,"CLASSIFICATION_TYPE":"U","NORAD_CAT_ID":67798,"ELEMENT_SET_NO":999,"REV_AT_EPOCH":519,"BSTAR":0.001047226,"MEAN_MOTION_DOT":0.00159144,"MEAN_MOTION_DDOT":0},{"OBJECT_NAME":"STARLINK-36804","OBJECT_ID":"2026-032C","EPOCH":"2026-03-12T05:35:19.976640","MEAN_MOTION":15.75270682,"ECCENTRICITY":0.00014415,"INCLINATION":97.284,"RA_OF_ASC_NODE":257.8441,"ARG_OF_PERICENTER":75.9481,"MEAN_ANOMALY":284.1945,"EPHEMERIS_TYPE":0,"CLASSIFICATION_TYPE":"U","NORAD_CAT_ID":67799,"ELEMENT_SET_NO":999,"REV_AT_EPOCH":518,"BSTAR":0.0016619661,"MEAN_MOTION_DOT":0.00256239,"MEAN_MOTION_DDOT":0},{"OBJECT_NAME":"STARLINK-36354","OBJECT_ID":"2026-032D","EPOCH":"2026-03-12T06:51:03.666240","MEAN_MOTION":15.75251018,"ECCENTRICITY":0.0001388,"INCLINATION":97.2844,"RA_OF_ASC_NODE":257.9274,"ARG_OF_PERICENTER":89.293,"MEAN_ANOMALY":270.8494,"EPHEMERIS_TYPE":0,"CLASSIFICATION_TYPE":"U","NORAD_CAT_ID":67800,"ELEMENT_SET_NO":999,"REV_AT_EPOCH":519,"BSTAR":0.0014020256,"MEAN_MOTION_DOT":0.00214905,"MEAN_MOTION_DDOT":0},{"OBJECT_NAME":"STARLINK-36773","OBJECT_ID":"2026-032E","EPOCH":"2026-03-12T05:30:45.882144","MEAN_MOTION":15.75189692,"ECCENTRICITY":0.00018054,"INCLINATION":97.2843,"RA_OF_ASC_NODE":257.8485,"ARG_OF_PERICENTER":81.2638,"MEAN_ANOMALY":278.8831,"EPHEMERIS_TYPE":0,"CLASSIFICATION_TYPE":"U","NORAD_CAT_ID":67801,"ELEMENT_SET_NO":999,"REV_AT_EPOCH":518,"BSTAR":0.00055623633,"MEAN_MOTION_DOT":0.00083655,"MEAN_MOTION_DDOT":0},{"OBJECT_NAME":"STARLINK-36739","OBJECT_ID":"2026-032F","EPOCH":"2026-03-12T06:35:49.131744","MEAN_MOTION":15.75207128,"ECCENTRICITY":0.00011343,"INCLINATION":97.285,"RA_OF_ASC_NODE":257.9405,"ARG_OF_PERICENTER":80.5994,"MEAN_ANOMALY":279.5399,"EPHEMERIS_TYPE":0,"CLASSIFICATION_TYPE":"U","NORAD_CAT_ID":67802,"ELEMENT_SET_NO":999,"REV_AT_EPOCH":519,"BSTAR":0.00088390959,"MEAN_MOTION_DOT":0.00133895,"MEAN_MOTION_DDOT":0},{"OBJECT_NAME":"STARLINK-36768","OBJECT_ID":"2026-032G","EPOCH":"2026-03-12T05:22:06.659616","MEAN_MOTION":15.75237118,"ECCENTRICITY":0.00012087,"INCLINATION":97.2843,"RA_OF_ASC_NODE":257.8561,"ARG_OF_PERICENTER":83.0074,"MEAN_ANOMALY":277.1329,"EPHEMERIS_TYPE":0,"CLASSIFICATION_TYPE":"U","NORAD_CAT_ID":67803,"ELEMENT_SET_NO":999,"REV_AT_EPOCH":518,"BSTAR":0.00077798998,"MEAN_MOTION_DOT":0.00117764,"MEAN_MOTION_DDOT":0},{"OBJECT_NAME":"STARLINK-36792","OBJECT_ID":"2026-032H","EPOCH":"2026-03-12T05:25:41.088000","MEAN_MOTION":15.75237133,"ECCENTRICITY":0.00018236,"INCLINATION":97.284,"RA_OF_ASC_NODE":257.8522,"ARG_OF_PERICENTER":73.4439,"MEAN_ANOMALY":286.7026,"EPHEMERIS_TYPE":0,"CLASSIFICATION_TYPE":"U","NORAD_CAT_ID":67804,"ELEMENT_SET_NO":999,"REV_AT_EPOCH":518,"BSTAR":0.0014409457,"MEAN_MOTION_DOT":0.00220901,"MEAN_MOTION_DDOT":0},{"OBJECT_NAME":"STARLINK-36782","OBJECT_ID":"2026-032J","EPOCH":"2026-03-12T06:21:35.304480","MEAN_MOTION":15.7523049,"ECCENTRICITY":0.00013426,"INCLINATION":97.2848,"RA_OF_ASC_NODE":257.9527,"ARG_OF_PERICENTER":73.8158,"MEAN_ANOMALY":286.3255,"EPHEMERIS_TYPE":0,"CLASSIFICATION_TYPE":"U","NORAD_CAT_ID":67805,"ELEMENT_SET_NO":999,"REV_AT_EPOCH":519,"BSTAR":0.0012450276,"MEAN_MOTION_DOT":0.00190098,"MEAN_MOTION_DDOT":0},{"OBJECT_NAME":"STARLINK-36389","OBJECT_ID":"2026-032K","EPOCH":"2026-03-12T06:40:54.052032","MEAN_MOTION":15.75221352,"ECCENTRICITY":0.0001379,"INCLINATION":97.2839,"RA_OF_ASC_NODE":257.9337,"ARG_OF_PERICENTER":77.5601,"MEAN_ANOMALY":282.5818,"EPHEMERIS_TYPE":0,"CLASSIFICATION_TYPE":"U","NORAD_CAT_ID":67806,"ELEMENT_SET_NO":999,"REV_AT_EPOCH":519,"BSTAR":0.0011391993,"MEAN_MOTION_DOT":0.0017352,"MEAN_MOTION_DDOT":0},{"OBJECT_NAME":"STARLINK-36382","OBJECT_ID":"2026-032L","EPOCH":"2026-03-12T06:37:51.073248","MEAN_MOTION":15.75269988,"ECCENTRICITY":0.00011955,"INCLINATION":97.284,"RA_OF_ASC_NODE":257.9359,"ARG_OF_PERICENTER":94.4575,"MEAN_ANOMALY":265.6827,"EPHEMERIS_TYPE":0,"CLASSIFICATION_TYPE":"U","NORAD_CAT_ID":67807,"ELEMENT_SET_NO":999,"REV_AT_EPOCH":519,"BSTAR":0.0014444101,"MEAN_MOTION_DOT":0.00221767,"MEAN_MOTION_DDOT":0},{"OBJECT_NAME":"STARLINK-36811","OBJECT_ID":"2026-032M","EPOCH":"2026-03-12T06:23:37.435200","MEAN_MOTION":15.75259199,"ECCENTRICITY":0.00013086,"INCLINATION":97.2848,"RA_OF_ASC_NODE":257.9505,"ARG_OF_PERICENTER":86.9346,"MEAN_ANOMALY":273.2069,"EPHEMERIS_TYPE":0,"CLASSIFICATION_TYPE":"U","NORAD_CAT_ID":67808,"ELEMENT_SET_NO":999,"REV_AT_EPOCH":519,"BSTAR":0.0019064555,"MEAN_MOTION_DOT":0.00295165,"MEAN_MOTION_DDOT":0},{"OBJECT_NAME":"STARLINK-36795","OBJECT_ID":"2026-032N","EPOCH":"2026-03-12T06:48:00.638208","MEAN_MOTION":15.75219991,"ECCENTRICITY":0.00013778,"INCLINATION":97.2839,"RA_OF_ASC_NODE":257.9265,"ARG_OF_PERICENTER":98.5683,"MEAN_ANOMALY":261.5739,"EPHEMERIS_TYPE":0,"CLASSIFICATION_TYPE":"U","NORAD_CAT_ID":67809,"ELEMENT_SET_NO":999,"REV_AT_EPOCH":519,"BSTAR":0.00098851819,"MEAN_MOTION_DOT":0.00150128,"MEAN_MOTION_DDOT":0}]
