KUIPER-00276            
1 67794U 26030AG  26071.10685811  .00027860  00000+0  94591-3 0  9993
2 67794  51.8836 208.2552 0018752  73.5881 286.7163 15.30127064  5451
KUIPER-00279            
1 67795U 26030AH  26071.11108885  .00037792  00000+0  10823-2 0  9996
2 67795  51.8791 207.5427 0006266  56.9919 303.1669 15.35545276  5469
CREW DRAGON 12          
1 67796U 26031A   26071.15917150  .00009166  00000+0  17667-3 0  9993
2 67796  51.6325  60.1463 0007984 183.4136 176.6799 15.48595269556615
STARLINK-36800          
1 67797U 26032A   26071.23463895  .00111501  00000+0  73847-3 0  9995
2 67797  97.2841 257.8416 0001470  78.0732 282.0698 15.75197226  5185
STARLINK-36798          
1 67798U 26032B   26071.28193068  .00159144  00000+0  10472-2 0  9992
2 67798  97.2844 257.9312 0001175 106.7092 253.4302 15.75208867  5194
STARLINK-36804          
1 67799U 26032C   26071.23287010  .00256239  00000+0  16620-2 0  9993
2 67799  97.2840 257.8441 0001441  75.9481 284.1945 15.75270682  5185
STARLINK-36354          
1 67800U 26032D   26071.28545910  .00214905  00000+0  14020-2 0  9993
2 67800  97.2844 257.9274 0001388  89.2930 270.8494 15.75251018  5198
STARLINK-36773          
1 67801U 26032E   26071.22969771  .00083655  00000+0  55624-3 0  9995
2 67801  97.2843 257.8485 0001805  81.2638 278.8831 15.75189692  5182
STARLINK-36739          
1 67802U 26032F   26071.27487421  .00133895  00000+0  88391-3 0  9997
2 67802  97.2850 257.9405 0001134  80.5994 279.5399 15.75207128  5199
STARLINK-36768          
1 67803U 26032G   26071.22368819  .00117764  00000+0  77799-3 0  9999
2 67803  97.2843 257.8561 0001208  83.0074 277.1329 15.75237118  5181
STARLINK-36792          
1 67804U 26032H   26071.22617000  .00220901  00000+0  14409-2 0  9995
2 67804  97.2840 257.8522 0001823  73.4439 286.7026 15.75237133  5184
STARLINK-36782          
1 67805U 26032J   26071.26499195  .00190098  00000+0  12450-2 0  9990
2 67805  97.2848 257.9527 0001342  73.8158 286.3255 15.75230490  5197
STARLINK-36389          
1 67806U 26032K   26071.27840338  .00173520  00000+0  11392-2 0  9996
2 67806  97.2839 257.9337 0001379  77.5601 282.5818 15.75221352  5191
STARLINK-36382          
1 67807U 26032L   26071.27628557  .00221767  00000+0  14444-2 0  9992
2 67807  97.2840 257.9359 0001195  94.4575 265.6827 15.75269988  5191
STARLINK-36811          
1 67808U 26032M   26071.26640550  .00295165  00000+0  19065-2 0  9996
2 67808  97.2848 257.9505 0001308  86.9346 273.2069 15.75259199  5197
STARLINK-36795          
1 67809U 26032N   26071.28334072  .00150128  00000+0  98852-3 0  9999
2 67809  97.2839 257.9265 0001377  98.5683 261.5739 15.75219991  5190
